COMMENT,ORIGINATOR,NORAD_CAT_ID,OBJECT_NAME,OBJECT_TYPE,CLASSIFICATION_TYPE,INTLDES,EPOCH,EPOCH_MICROSECONDS,MEAN_MOTION,ECCENTRICITY,INCLINATION,RA_OF_ASC_NODE,ARG_OF_PERICENTER,MEAN_ANOMALY,EPHEMERIS_TYPE,ELEMENT_SET_NO,REV_AT_EPOCH,BSTAR,MEAN_MOTION_DOT,MEAN_MOTION_DDOT,FILE,TLE_LINE0,TLE_LINE1,TLE_LINE2,OBJECT_ID,OBJECT_NUMBER,SEMIMAJOR_AXIS,PERIOD,APOGEE,PERIGEE,DECAYED,date
GENERATED VIA SPACETRACK.ORG API,18 SPCS,48894,SPACEBEE-107,PAYLOAD,U,21059R,2023/3/4 8:48,149216,15.24897172,0.0008246,97.581,198.8074,276.9112,83.1187,0,999,9340,0.0019906,0.00049776,0,3850900,0 SPACEBEE-107,1 48894U 21059R   23063.36702719  .00049776  00000-0  19906-2 0  9999,2 48894  97.5810 198.8074 0008246 276.9112  83.1187 15.24897172 93400,2021-059R,48894,6869.231,94.433,496.761,485.432,0,
GENERATED VIA SPACETRACK.ORG API,18 SPCS,48894,SPACEBEE-107,PAYLOAD,U,21059R,2023/3/4 8:48,149216,15.24897172,0.0008246,97.581,198.8074,276.9112,83.1187,0,999,9340,0.0019906,0.00049776,0,3851072,0 SPACEBEE-107,1 48894U 21059R   23063.36702719  .00049776  00000-0  19906-2 0  9999,2 48894  97.5810 198.8074 0008246 276.9112  83.1187 15.24897172 93400,2021-059R,48894,6869.231,94.433,496.761,485.432,0,
GENERATED VIA SPACETRACK.ORG API,18 SPCS,48894,SPACEBEE-107,PAYLOAD,U,21059R,2023/3/5 8:25,348512,15.24988198,0.0008258,97.5816,199.8047,273.3106,86.7187,0,999,9355,0.0019118,0.00047921,0,3851939,0 SPACEBEE-107,1 48894U 21059R   23064.35130033  .00047921  00000-0  19118-2 0  9998,2 48894  97.5816 199.8047 0008258 273.3106  86.7187 15.24988198 93558,2021-059R,48894,6868.958,94.427,496.495,485.15,0,
GENERATED VIA SPACETRACK.ORG API,18 SPCS,48894,SPACEBEE-107,PAYLOAD,U,21059R,2023/3/5 21:01,436512,15.25043086,0.0008297,97.5818,200.3362,271.6976,88.3311,0,999,9363,0.0020164,0.00050649,0,3852040,0 SPACEBEE-107,1 48894U 21059R   23064.87622033  .00050649  00000-0  20164-2 0  9995,2 48894  97.5818 200.3362 0008297 271.6976  88.3311 15.25043086 93632,2021-059R,48894,6868.793,94.424,496.357,484.959,0,
GENERATED VIA SPACETRACK.ORG API,18 SPCS,48894,SPACEBEE-107,PAYLOAD,U,21059R,2023/3/6 14:21,293856,15.25113915,0.0008385,97.5823,201.0675,269.9017,90.1259,0,999,9374,0.0018599,0.00046788,0,3853141,0 SPACEBEE-107,1 48894U 21059R   23065.59795479  .00046788  00000-0  18599-2 0  9998,2 48894  97.5823 201.0675 0008385 269.9017  90.1259 15.25113915 93740,2021-059R,48894,6868.58,94.419,496.205,484.686,0,
GENERATED VIA SPACETRACK.ORG API,18 SPCS,48894,SPACEBEE-107,PAYLOAD,U,21059R,2023/3/6 23:47,384800,15.2515763,0.0008399,97.5825,201.4664,268.915,91.1125,0,999,9380,0.0020193,0.00050899,0,3853274,0 SPACEBEE-107,1 48894U 21059R   23065.99161325  .00050899  00000-0  20193-2 0  9990,2 48894  97.5825 201.4664 0008399 268.9150  91.1125 15.25157630 93808,2021-059R,48894,6868.449,94.416,496.083,484.545,0,
GENERATED VIA SPACETRACK.ORG API,18 SPCS,48894,SPACEBEE-107,PAYLOAD,U,21059R,2023/3/7 7:40,89184,15.25196069,0.0008392,97.5828,201.7985,267.6321,92.3956,0,999,9385,0.0021108,0.00053287,0,3854072,0 SPACEBEE-107,1 48894U 21059R   23066.31965381  .00053287  00000-0  21108-2 0  9992,2 48894  97.5828 201.7985 0008392 267.6321  92.3956 15.25196069 93858,2021-059R,48894,6868.334,94.414,495.963,484.435,0,
GENERATED VIA SPACETRACK.ORG API,18 SPCS,48894,SPACEBEE-107,PAYLOAD,U,21059R,2023/3/8 2:33,928608,15.25273514,0.0008302,97.583,202.596,264.5105,95.5185,0,999,9397,0.0019975,0.0005052,0,3854170,0 SPACEBEE-107,1 48894U 21059R   23067.10692047  .00050520  00000-0  19975-2 0  9992,2 48894  97.5830 202.5960 0008302 264.5105  95.5185 15.25273514 93973,2021-059R,48894,6868.101,94.409,495.668,484.264,0,
GENERATED VIA SPACETRACK.ORG API,18 SPCS,48894,SPACEBEE-107,PAYLOAD,U,21059R,2023/3/8 8:51,404896,15.25303168,0.0008263,97.5831,202.8618,263.4052,96.6245,0,999,9401,0.0017273,0.00043674,0,3855077,0 SPACEBEE-107,1 48894U 21059R   23067.36933339  .00043674  00000-0  17273-2 0  9993,2 48894  97.5831 202.8618 0008263 263.4052  96.6245 15.25303168 94016,2021-059R,48894,6868.012,94.407,495.552,484.202,0,
GENERATED VIA SPACETRACK.ORG API,18 SPCS,48894,SPACEBEE-107,PAYLOAD,U,21059R,2023/3/9 2:10,638496,15.25393232,0.0008221,97.5834,203.5936,261.3086,98.7221,0,999,9412,0.0029015,0.0007391,0,3855209,0 SPACEBEE-107,1 48894U 21059R   23068.09094489  .00073910  00000-0  29015-2 0  9991,2 48894  97.5834 203.5936 0008221 261.3086  98.7221 15.25393232 94128,2021-059R,48894,6867.742,94.402,495.253,483.961,0,
GENERATED VIA SPACETRACK.ORG API,18 SPCS,48894,SPACEBEE-107,PAYLOAD,U,21059R,2023/3/9 14:46,142848,15.25439843,0.0008237,97.5835,204.1256,259.7431,100.2877,0,999,9420,0.0025829,0.00065807,0,3855633,0 SPACEBEE-107,1 48894U 21059R   23068.61573082  .00065807  00000-0  25829-2 0  9995,2 48894  97.5835 204.1256 0008237 259.7431 100.2877 15.25439843 94207,2021-059R,48894,6867.602,94.399,495.124,483.81,0,
GENERATED VIA SPACETRACK.ORG API,18 SPCS,48894,SPACEBEE-107,PAYLOAD,U,21059R,2023/3/9 21:04,199072,15.25468668,0.0008331,97.5836,204.3914,259.0436,100.9865,0,999,9424,0.0021855,0.00055644,0,3855951,0 SPACEBEE-107,1 48894U 21059R   23068.87811573  .00055644  00000-0  21855-2 0  9996,2 48894  97.5836 204.3914 0008331 259.0436 100.9865 15.25468668 94249,2021-059R,48894,6867.515,94.397,495.102,483.659,0,
GENERATED VIA SPACETRACK.ORG API,18 SPCS,48894,SPACEBEE-107,PAYLOAD,U,21059R,2023/3/10 8:05,664544,15.25526381,0.0008337,97.5825,204.855,257.3511,102.6795,0,999,9431,0.0023313,0.00059494,0,3856770,0 SPACEBEE-107,1 48894U 21059R   23069.33727621  .00059494  00000-0  23313-2 0  9996,2 48894  97.5825 204.8550 0008337 257.3511 102.6795 15.25526381 94315,2021-059R,48894,6867.342,94.394,494.933,483.482,0,
GENERATED VIA SPACETRACK.ORG API,18 SPCS,48894,SPACEBEE-107,PAYLOAD,U,21059R,2023/3/10 20:41,972448,15.25575563,0.0008332,97.5826,205.3873,256.3898,103.6411,0,999,9439,0.0019907,0.00050807,0,3856975,0 SPACEBEE-107,1 48894U 21059R   23069.86201357  .00050807  00000-0  19907-2 0  9990,2 48894  97.5826 205.3873 0008332 256.3898 103.6411 15.25575563 94392,2021-059R,48894,6867.195,94.391,494.781,483.338,0,
GENERATED VIA SPACETRACK.ORG API,18 SPCS,48894,SPACEBEE-107,PAYLOAD,U,21059R,2023/3/11 2:59,924832,15.25605705,0.0008415,97.5833,205.654,256.6057,103.4243,0,999,9443,0.0020047,0.00051215,0,3857100,0 SPACEBEE-107,1 48894U 21059R   23070.12437413  .00051215  00000-0  20047-2 0  9996,2 48894  97.5833 205.6540 0008415 256.6057 103.4243 15.25605705 94434,2021-059R,48894,6867.104,94.389,494.748,483.191,0,
GENERATED VIA SPACETRACK.ORG API,18 SPCS,48894,SPACEBEE-107,PAYLOAD,U,21059R,2023/3/11 7:42,687808,15.2562865,0.0008362,97.5829,205.8529,254.7541,105.2772,0,999,9446,0.0020965,0.00053617,0,3857581,0 SPACEBEE-107,1 48894U 21059R   23070.32114222  .00053617  00000-0  20965-2 0  9995,2 48894  97.5829 205.8529 0008362 254.7541 105.2772 15.25628650 94460,2021-059R,48894,6867.035,94.387,494.643,483.158,0,
GENERATED VIA SPACETRACK.ORG API,18 SPCS,48894,SPACEBEE-107,PAYLOAD,U,21059R,2023/3/11 20:18,940608,15.25675178,0.0008272,97.583,206.3853,253.4858,106.5471,0,999,9454,0.0017353,0.00044373,0,3857847,0 SPACEBEE-107,1 48894U 21059R   23070.84584422  .00044373  00000-0  17353-2 0  9991,2 48894  97.5830 206.3853 0008272 253.4858 106.5471 15.25675178 94541,2021-059R,48894,6866.896,94.384,494.441,483.08,0,
GENERATED VIA SPACETRACK.ORG API,18 SPCS,48894,SPACEBEE-107,PAYLOAD,U,21059R,2023/3/12 8:53,696096,15.2573038,0.0008254,97.583,206.9167,250.814,109.2205,0,999,9462,0.0019092,0.00048938,0,3858361,0 SPACEBEE-107,1 48894U 21059R   23071.37052889  .00048938  00000-0  19092-2 0  9990,2 48894  97.5830 206.9167 0008254 250.8140 109.2205 15.25730380 94621,2021-059R,48894,6866.73,94.381,494.263,482.927,0,
GENERATED VIA SPACETRACK.ORG API,18 SPCS,48894,SPACEBEE-107,PAYLOAD,U,21059R,2023/3/12 8:53,696096,15.2573038,0.0008254,97.583,206.9167,250.814,109.2205,0,999,9462,0.0019092,0.00048938,0,3858534,0 SPACEBEE-107,1 48894U 21059R   23071.37052889  .00048938  00000-0  19092-2 0  9990,2 48894  97.5830 206.9167 0008254 250.8140 109.2205 15.25730380 94621,2021-059R,48894,6866.73,94.381,494.263,482.927,0,
GENERATED VIA SPACETRACK.ORG API,18 SPCS,48894,SPACEBEE-107,PAYLOAD,U,21059R,2023/3/13 8:30,617824,15.25813214,0.0008314,97.5833,207.9144,247.5328,112.5029,0,999,9477,0.0015618,0.00040072,0,3859174,0 SPACEBEE-107,1 48894U 21059R   23072.35426641  .00040072  00000-0  15618-2 0  9991,2 48894  97.5833 207.9144 0008314 247.5328 112.5029 15.25813214 94773,2021-059R,48894,6866.482,94.376,494.055,482.638,0,
GENERATED VIA SPACETRACK.ORG API,18 SPCS,48894,SPACEBEE-107,PAYLOAD,U,21059R,2023/3/13 8:30,617824,15.25813214,0.0008314,97.5833,207.9144,247.5328,112.5029,0,999,9477,0.0015618,0.00040072,0,3859425,0 SPACEBEE-107,1 48894U 21059R   23072.35426641  .00040072  00000-0  15618-2 0  9991,2 48894  97.5833 207.9144 0008314 247.5328 112.5029 15.25813214 94773,2021-059R,48894,6866.482,94.376,494.055,482.638,0,
GENERATED VIA SPACETRACK.ORG API,18 SPCS,48894,SPACEBEE-107,PAYLOAD,U,21059R,2023/3/13 16:22,222752,15.2584062,0.0008316,97.5832,208.247,246.3771,113.6594,0,999,9482,0.0015474,0.00039733,0,3859631,0 SPACEBEE-107,1 48894U 21059R   23072.68216693  .00039733  00000-0  15474-2 0  9993,2 48894  97.5832 208.2470 0008316 246.3771 113.6594 15.25840620 94825,2021-059R,48894,6866.399,94.374,493.974,482.554,0,
GENERATED VIA SPACETRACK.ORG API,18 SPCS,48894,SPACEBEE-107,PAYLOAD,U,21059R,2023/3/14 14:24,317120,15.25920958,0.0008338,97.5829,209.1786,244.6462,115.3913,0,999,9496,0.0018234,0.00046992,0,3860373,0 SPACEBEE-107,1 48894U 21059R   23073.60025830  .00046992  00000-0  18234-2 0  9999,2 48894  97.5829 209.1786 0008338 244.6462 115.3913 15.25920958 94965,2021-059R,48894,6866.158,94.369,493.748,482.298,0,
